CCSDS_OMM_VERS = 2.0
CREATION_DATE  = 
ORIGINATOR     = 

OBJECT_NAME    = STARLINK-35443
OBJECT_ID      = 2025-253W
CENTER_NAME    = EARTH
REF_FRAME      = TEME
TIME_SYSTEM    = UTC
MEAN_ELEMENT_THEORY = SGP/SGP4

EPOCH          = 2025-11-28T14:00:01.999872
MEAN_MOTION    = 15.50585194
ECCENTRICITY   = .00015877
INCLINATION    = 42.9995
RA_OF_ASC_NODE = 67.4193
ARG_OF_PERICENTER = 280.7029
MEAN_ANOMALY   = 178.5374

EPHEMERIS_TYPE = 0
CLASSIFICATION_TYPE = U
NORAD_CAT_ID   = 66339
ELEMENT_SET_NO = 999
REV_AT_EPOCH   = 470
BSTAR          = -.95879388E-3
MEAN_MOTION_DOT = -.562E-3
MEAN_MOTION_DDOT = 0

CCSDS_OMM_VERS = 2.0
CREATION_DATE  = 
ORIGINATOR     = 

OBJECT_NAME    = STARLINK-35218
OBJECT_ID      = 2025-253X
CENTER_NAME    = EARTH
REF_FRAME      = TEME
TIME_SYSTEM    = UTC
MEAN_ELEMENT_THEORY = SGP/SGP4

EPOCH          = 2025-11-28T14:00:01.999872
MEAN_MOTION    = 15.50548530
ECCENTRICITY   = .0001494
INCLINATION    = 42.9994
RA_OF_ASC_NODE = 67.4484
ARG_OF_PERICENTER = 273.4226
MEAN_ANOMALY   = 174.4020

EPHEMERIS_TYPE = 0
CLASSIFICATION_TYPE = U
NORAD_CAT_ID   = 66340
ELEMENT_SET_NO = 999
REV_AT_EPOCH   = 475
BSTAR          = -.58846422E-3
MEAN_MOTION_DOT = -.34674E-3
MEAN_MOTION_DDOT = 0

CCSDS_OMM_VERS = 2.0
CREATION_DATE  = 
ORIGINATOR     = 

OBJECT_NAME    = STARLINK-35522
OBJECT_ID      = 2025-253Y
CENTER_NAME    = EARTH
REF_FRAME      = TEME
TIME_SYSTEM    = UTC
MEAN_ELEMENT_THEORY = SGP/SGP4

EPOCH          = 2025-11-28T14:00:01.999872
MEAN_MOTION    = 15.50566486
ECCENTRICITY   = .00008983
INCLINATION    = 42.9995
RA_OF_ASC_NODE = 67.4696
ARG_OF_PERICENTER = 266.0501
MEAN_ANOMALY   = 174.0237

EPHEMERIS_TYPE = 0
CLASSIFICATION_TYPE = U
NORAD_CAT_ID   = 66341
ELEMENT_SET_NO = 999
REV_AT_EPOCH   = 475
BSTAR          = -.41457158E-3
MEAN_MOTION_DOT = -.24574E-3
MEAN_MOTION_DDOT = 0

CCSDS_OMM_VERS = 2.0
CREATION_DATE  = 
ORIGINATOR     = 

OBJECT_NAME    = STARLINK-35535
OBJECT_ID      = 2025-253Z
CENTER_NAME    = EARTH
REF_FRAME      = TEME
TIME_SYSTEM    = UTC
MEAN_ELEMENT_THEORY = SGP/SGP4

EPOCH          = 2025-11-28T14:00:01.999872
MEAN_MOTION    = 15.50580086
ECCENTRICITY   = .00014518
INCLINATION    = 42.9995
RA_OF_ASC_NODE = 67.4240
ARG_OF_PERICENTER = 277.0473
MEAN_ANOMALY   = 180.2753

EPHEMERIS_TYPE = 0
CLASSIFICATION_TYPE = U
NORAD_CAT_ID   = 66342
ELEMENT_SET_NO = 999
REV_AT_EPOCH   = 465
BSTAR          = -.76212501E-3
MEAN_MOTION_DOT = -.44798E-3
MEAN_MOTION_DDOT = 0

CCSDS_OMM_VERS = 2.0
CREATION_DATE  = 
ORIGINATOR     = 

OBJECT_NAME    = STARLINK-35467
OBJECT_ID      = 2025-253AA
CENTER_NAME    = EARTH
REF_FRAME      = TEME
TIME_SYSTEM    = UTC
MEAN_ELEMENT_THEORY = SGP/SGP4

EPOCH          = 2025-11-28T14:00:01.999872
MEAN_MOTION    = 15.50582193
ECCENTRICITY   = .00014356
INCLINATION    = 42.9995
RA_OF_ASC_NODE = 67.4294
ARG_OF_PERICENTER = 274.6003
MEAN_ANOMALY   = 180.8120

EPHEMERIS_TYPE = 0
CLASSIFICATION_TYPE = U
NORAD_CAT_ID   = 66343
ELEMENT_SET_NO = 999
REV_AT_EPOCH   = 465
BSTAR          = -.95014936E-3
MEAN_MOTION_DOT = -.55693E-3
MEAN_MOTION_DDOT = 0

CCSDS_OMM_VERS = 2.0
CREATION_DATE  = 
ORIGINATOR     = 

OBJECT_NAME    = STARLINK-35511
OBJECT_ID      = 2025-253AB
CENTER_NAME    = EARTH
REF_FRAME      = TEME
TIME_SYSTEM    = UTC
MEAN_ELEMENT_THEORY = SGP/SGP4

EPOCH          = 2025-11-28T14:00:01.999872
MEAN_MOTION    = 15.50582455
ECCENTRICITY   = .00017102
INCLINATION    = 42.9995
RA_OF_ASC_NODE = 67.4050
ARG_OF_PERICENTER = 273.6016
MEAN_ANOMALY   = 191.3927

EPHEMERIS_TYPE = 0
CLASSIFICATION_TYPE = U
NORAD_CAT_ID   = 66344
ELEMENT_SET_NO = 999
REV_AT_EPOCH   = 465
BSTAR          = -.91533484E-3
MEAN_MOTION_DOT = -.53681E-3
MEAN_MOTION_DDOT = 0

CCSDS_OMM_VERS = 2.0
CREATION_DATE  = 
ORIGINATOR     = 

OBJECT_NAME    = STARLINK-35440
OBJECT_ID      = 2025-253AC
CENTER_NAME    = EARTH
REF_FRAME      = TEME
TIME_SYSTEM    = UTC
MEAN_ELEMENT_THEORY = SGP/SGP4

EPOCH          = 2025-11-28T14:00:01.999872
MEAN_MOTION    = 15.50584620
ECCENTRICITY   = .00015616
INCLINATION    = 42.9996
RA_OF_ASC_NODE = 67.4125
ARG_OF_PERICENTER = 280.3185
MEAN_ANOMALY   = 180.8366

EPHEMERIS_TYPE = 0
CLASSIFICATION_TYPE = U
NORAD_CAT_ID   = 66345
ELEMENT_SET_NO = 999
REV_AT_EPOCH   = 465
BSTAR          = -.899823E-3
MEAN_MOTION_DOT = -.52786E-3
MEAN_MOTION_DDOT = 0

CCSDS_OMM_VERS = 2.0
CREATION_DATE  = 
ORIGINATOR     = 

OBJECT_NAME    = STARLINK-35482
OBJECT_ID      = 2025-253AD
CENTER_NAME    = EARTH
REF_FRAME      = TEME
TIME_SYSTEM    = UTC
MEAN_ELEMENT_THEORY = SGP/SGP4

EPOCH          = 2025-11-28T14:00:01.999872
MEAN_MOTION    = 15.50576554
ECCENTRICITY   = .00012409
INCLINATION    = 42.9994
RA_OF_ASC_NODE = 67.4089
ARG_OF_PERICENTER = 272.6594
MEAN_ANOMALY   = 190.4177

EPHEMERIS_TYPE = 0
CLASSIFICATION_TYPE = U
NORAD_CAT_ID   = 66346
ELEMENT_SET_NO = 999
REV_AT_EPOCH   = 475
BSTAR          = -.72683648E-3
MEAN_MOTION_DOT = -.42745E-3
MEAN_MOTION_DDOT = 0

CCSDS_OMM_VERS = 2.0
CREATION_DATE  = 
ORIGINATOR     = 

OBJECT_NAME    = STARLINK-35438
OBJECT_ID      = 2025-253AE
CENTER_NAME    = EARTH
REF_FRAME      = TEME
TIME_SYSTEM    = UTC
MEAN_ELEMENT_THEORY = SGP/SGP4

EPOCH          = 2025-11-28T14:00:01.999872
MEAN_MOTION    = 15.50588216
ECCENTRICITY   = .00016201
INCLINATION    = 42.9995
RA_OF_ASC_NODE = 67.3994
ARG_OF_PERICENTER = 274.0540
MEAN_ANOMALY   = 192.8598

EPHEMERIS_TYPE = 0
CLASSIFICATION_TYPE = U
NORAD_CAT_ID   = 66347
ELEMENT_SET_NO = 999
REV_AT_EPOCH   = 465
BSTAR          = -.11738671E-2
MEAN_MOTION_DOT = -.6863E-3
MEAN_MOTION_DDOT = 0

CCSDS_OMM_VERS = 2.0
CREATION_DATE  = 
ORIGINATOR     = 

OBJECT_NAME    = STARLINK-35849
OBJECT_ID      = 2025-254A
CENTER_NAME    = EARTH
REF_FRAME      = TEME
TIME_SYSTEM    = UTC
MEAN_ELEMENT_THEORY = SGP/SGP4

EPOCH          = 2025-11-28T12:44:06.376704
MEAN_MOTION    = 15.74220164
ECCENTRICITY   = .00014552
INCLINATION    = 53.1590
RA_OF_ASC_NODE = 345.4924
ARG_OF_PERICENTER = 97.9515
MEAN_ANOMALY   = 262.1670

EPHEMERIS_TYPE = 0
CLASSIFICATION_TYPE = U
NORAD_CAT_ID   = 66348
ELEMENT_SET_NO = 999
REV_AT_EPOCH   = 460
BSTAR          = .94990927E-3
MEAN_MOTION_DOT = .141029E-2
MEAN_MOTION_DDOT = 0

CCSDS_OMM_VERS = 2.0
CREATION_DATE  = 
ORIGINATOR     = 

OBJECT_NAME    = STARLINK-35848
OBJECT_ID      = 2025-254B
CENTER_NAME    = EARTH
REF_FRAME      = TEME
TIME_SYSTEM    = UTC
MEAN_ELEMENT_THEORY = SGP/SGP4

EPOCH          = 2025-11-28T12:43:36.544512
MEAN_MOTION    = 15.74177897
ECCENTRICITY   = .00017499
INCLINATION    = 53.1589
RA_OF_ASC_NODE = 345.4898
ARG_OF_PERICENTER = 91.2366
MEAN_ANOMALY   = 268.8854

EPHEMERIS_TYPE = 0
CLASSIFICATION_TYPE = U
NORAD_CAT_ID   = 66349
ELEMENT_SET_NO = 999
REV_AT_EPOCH   = 344
BSTAR          = .12937386E-2
MEAN_MOTION_DOT = .193156E-2
MEAN_MOTION_DDOT = 0

CCSDS_OMM_VERS = 2.0
CREATION_DATE  = 
ORIGINATOR     = 

OBJECT_NAME    = STARLINK-35829
OBJECT_ID      = 2025-254C
CENTER_NAME    = EARTH
REF_FRAME      = TEME
TIME_SYSTEM    = UTC
MEAN_ELEMENT_THEORY = SGP/SGP4

EPOCH          = 2025-11-28T14:14:34.259712
MEAN_MOTION    = 15.74121410
ECCENTRICITY   = .00007356
INCLINATION    = 53.1589
RA_OF_ASC_NODE = 345.1720
ARG_OF_PERICENTER = 87.4870
MEAN_ANOMALY   = 272.6234

EPHEMERIS_TYPE = 0
CLASSIFICATION_TYPE = U
NORAD_CAT_ID   = 66350
ELEMENT_SET_NO = 999
REV_AT_EPOCH   = 345
BSTAR          = .27338089E-3
MEAN_MOTION_DOT = .39479E-3
MEAN_MOTION_DDOT = 0

