STARLINK-35443          
1 66339U 25253W   25332.58335648 -.00056200  00000+0 -95879-3 0  9996
2 66339  42.9995  67.4193 0001587 280.7029 178.5374 15.50585194  4705
STARLINK-35218          
1 66340U 25253X   25332.58335648 -.00034674  00000+0 -58846-3 0  9992
2 66340  42.9994  67.4484 0001494 273.4226 174.4020 15.50548530  4755
STARLINK-35522          
1 66341U 25253Y   25332.58335648 -.00024574  00000+0 -41457-3 0  9991
2 66341  42.9995  67.4696 0000898 266.0501 174.0237 15.50566486  4759
STARLINK-35535          
1 66342U 25253Z   25332.58335648 -.00044798  00000+0 -76213-3 0  9990
2 66342  42.9995  67.4240 0001451 277.0473 180.2753 15.50580086  4654
STARLINK-35467          
1 66343U 25253AA  25332.58335648 -.00055693  00000+0 -95015-3 0  9998
2 66343  42.9995  67.4294 0001435 274.6003 180.8120 15.50582193  4653
STARLINK-35511          
1 66344U 25253AB  25332.58335648 -.00053681  00000+0 -91533-3 0  9995
2 66344  42.9995  67.4050 0001710 273.6016 191.3927 15.50582455  4656
STARLINK-35440          
1 66345U 25253AC  25332.58335648 -.00052786  00000+0 -89982-3 0  9996
2 66345  42.9996  67.4125 0001561 280.3185 180.8366 15.50584620  4653
STARLINK-35482          
1 66346U 25253AD  25332.58335648 -.00042745  00000+0 -72684-3 0  9992
2 66346  42.9994  67.4089 0001240 272.6594 190.4177 15.50576554  4758
STARLINK-35438          
1 66347U 25253AE  25332.58335648 -.00068630  00000+0 -11739-2 0  9997
2 66347  42.9995  67.3994 0001620 274.0540 192.8598 15.50588216  4653
STARLINK-35849          
1 66348U 25254A   25332.53062936  .00141029  00000+0  94991-3 0  9995
2 66348  53.1590 345.4924 0001455  97.9515 262.1670 15.74220164  4600
STARLINK-35848          
1 66349U 25254B   25332.53028408  .00193156  00000+0  12937-2 0  9999
2 66349  53.1589 345.4898 0001749  91.2366 268.8854 15.74177897  3448
STARLINK-35829          
1 66350U 25254C   25332.59345208  .00039479  00000+0  27338-3 0  9996
2 66350  53.1589 345.1720 0000735  87.4870 272.6234 15.74121410  3458
